[{"OBJECT_NAME":"STARLINK-32599","OBJECT_ID":"2024-216S","EPOCH":"2026-03-19T17:01:07.608576","MEAN_MOTION":15.27547994,"ECCENTRICITY":0.00015756,"INCLINATION":42.9998,"RA_OF_ASC_NODE":207.0281,"ARG_OF_PERICENTER":285.6529,"MEAN_ANOMALY":74.4149,"EPHEMERIS_TYPE":0,"CLASSIFICATION_TYPE":"U","NORAD_CAT_ID":62048,"ELEMENT_SET_NO":999,"REV_AT_EPOCH":7532,"BSTAR":0.0009025117,"MEAN_MOTION_DOT":0.00024632,"MEAN_MOTION_DDOT":0},{"OBJECT_NAME":"STARLINK-32473","OBJECT_ID":"2024-216T","EPOCH":"2026-03-19T16:27:21.906144","MEAN_MOTION":15.27604994,"ECCENTRICITY":0.00014951,"INCLINATION":43.0007,"RA_OF_ASC_NODE":199.9304,"ARG_OF_PERICENTER":272.526,"MEAN_ANOMALY":87.542,"EPHEMERIS_TYPE":0,"CLASSIFICATION_TYPE":"U","NORAD_CAT_ID":62049,"ELEMENT_SET_NO":999,"REV_AT_EPOCH":7424,"BSTAR":0.00087039872,"MEAN_MOTION_DOT":0.00023785,"MEAN_MOTION_DDOT":0},{"OBJECT_NAME":"STARLINK-32492","OBJECT_ID":"2024-216U","EPOCH":"2026-03-19T19:32:25.652256","MEAN_MOTION":15.27610759,"ECCENTRICITY":0.00023419,"INCLINATION":43.0009,"RA_OF_ASC_NODE":206.0984,"ARG_OF_PERICENTER":254.5243,"MEAN_ANOMALY":105.535,"EPHEMERIS_TYPE":0,"CLASSIFICATION_TYPE":"U","NORAD_CAT_ID":62050,"ELEMENT_SET_NO":999,"REV_AT_EPOCH":7534,"BSTAR":0.00095792212,"MEAN_MOTION_DOT":0.00026217,"MEAN_MOTION_DDOT":0},{"OBJECT_NAME":"STARLINK-32496","OBJECT_ID":"2024-216V","EPOCH":"2026-03-19T17:15:55.696032","MEAN_MOTION":15.27596545,"ECCENTRICITY":0.00015027,"INCLINATION":42.9984,"RA_OF_ASC_NODE":207.106,"ARG_OF_PERICENTER":275.7477,"MEAN_ANOMALY":84.3203,"EPHEMERIS_TYPE":0,"CLASSIFICATION_TYPE":"U","NORAD_CAT_ID":62051,"ELEMENT_SET_NO":999,"REV_AT_EPOCH":7532,"BSTAR":0.00054637235,"MEAN_MOTION_DOT":0.00014811,"MEAN_MOTION_DDOT":0},{"OBJECT_NAME":"STARLINK-32495","OBJECT_ID":"2024-216W","EPOCH":"2026-03-19T19:06:31.577184","MEAN_MOTION":15.27596056,"ECCENTRICITY":9.516e-5,"INCLINATION":43.0007,"RA_OF_ASC_NODE":205.9676,"ARG_OF_PERICENTER":279.444,"MEAN_ANOMALY":80.6304,"EPHEMERIS_TYPE":0,"CLASSIFICATION_TYPE":"U","NORAD_CAT_ID":62052,"ELEMENT_SET_NO":999,"REV_AT_EPOCH":7534,"BSTAR":0.00060486649,"MEAN_MOTION_DOT":0.00016428,"MEAN_MOTION_DDOT":0},{"OBJECT_NAME":"STARLINK-32494","OBJECT_ID":"2024-216X","EPOCH":"2026-03-19T18:09:22.830336","MEAN_MOTION":15.27597367,"ECCENTRICITY":0.00016206,"INCLINATION":43.0008,"RA_OF_ASC_NODE":206.5265,"ARG_OF_PERICENTER":260.5792,"MEAN_ANOMALY":99.4877,"EPHEMERIS_TYPE":0,"CLASSIFICATION_TYPE":"U","NORAD_CAT_ID":62053,"ELEMENT_SET_NO":999,"REV_AT_EPOCH":7533,"BSTAR":0.00089204915,"MEAN_MOTION_DOT":0.00024379,"MEAN_MOTION_DDOT":0},{"OBJECT_NAME":"STARLINK-32408","OBJECT_ID":"2024-216Y","EPOCH":"2026-03-19T16:21:48.669120","MEAN_MOTION":15.27596609,"ECCENTRICITY":0.00015449,"INCLINATION":43.0002,"RA_OF_ASC_NODE":199.9043,"ARG_OF_PERICENTER":265.3842,"MEAN_ANOMALY":94.6833,"EPHEMERIS_TYPE":0,"CLASSIFICATION_TYPE":"U","NORAD_CAT_ID":62054,"ELEMENT_SET_NO":999,"REV_AT_EPOCH":7541,"BSTAR":0.0008812878,"MEAN_MOTION_DOT":0.00024081,"MEAN_MOTION_DDOT":0},{"OBJECT_NAME":"STARLINK-32571","OBJECT_ID":"2024-216Z","EPOCH":"2026-03-20T07:04:10.697664","MEAN_MOTION":15.27589714,"ECCENTRICITY":0.00014175,"INCLINATION":43.0021,"RA_OF_ASC_NODE":195.9022,"ARG_OF_PERICENTER":273.0091,"MEAN_ANOMALY":87.0599,"EPHEMERIS_TYPE":0,"CLASSIFICATION_TYPE":"U","NORAD_CAT_ID":62055,"ELEMENT_SET_NO":999,"REV_AT_EPOCH":7560,"BSTAR":0.00080536115,"MEAN_MOTION_DOT":0.00021972,"MEAN_MOTION_DDOT":0},{"OBJECT_NAME":"STARLINK-11465 [DTC]","OBJECT_ID":"2024-217A","EPOCH":"2026-03-20T02:44:29.633568","MEAN_MOTION":15.69698264,"ECCENTRICITY":0.00011048,"INCLINATION":53.1578,"RA_OF_ASC_NODE":19.6609,"ARG_OF_PERICENTER":69.7202,"MEAN_ANOMALY":290.3935,"EPHEMERIS_TYPE":0,"CLASSIFICATION_TYPE":"U","NORAD_CAT_ID":62057,"ELEMENT_SET_NO":999,"REV_AT_EPOCH":7681,"BSTAR":0.0016122686,"MEAN_MOTION_DOT":0.00199403,"MEAN_MOTION_DDOT":0},{"OBJECT_NAME":"STARLINK-11426 [DTC]","OBJECT_ID":"2024-217B","EPOCH":"2026-03-20T02:37:26.143104","MEAN_MOTION":15.69711697,"ECCENTRICITY":0.00010417,"INCLINATION":53.1578,"RA_OF_ASC_NODE":19.6284,"ARG_OF_PERICENTER":83.4787,"MEAN_ANOMALY":276.635,"EPHEMERIS_TYPE":0,"CLASSIFICATION_TYPE":"U","NORAD_CAT_ID":62058,"ELEMENT_SET_NO":999,"REV_AT_EPOCH":7675,"BSTAR":0.0016422307,"MEAN_MOTION_DOT":0.0020333,"MEAN_MOTION_DDOT":0},{"OBJECT_NAME":"STARLINK-11454 [DTC]","OBJECT_ID":"2024-217C","EPOCH":"2026-03-20T04:58:33.800160","MEAN_MOTION":15.69736199,"ECCENTRICITY":0.00012546,"INCLINATION":53.1585,"RA_OF_ASC_NODE":19.5404,"ARG_OF_PERICENTER":76.6681,"MEAN_ANOMALY":283.4477,"EPHEMERIS_TYPE":0,"CLASSIFICATION_TYPE":"U","NORAD_CAT_ID":62059,"ELEMENT_SET_NO":999,"REV_AT_EPOCH":7682,"BSTAR":0.00093990591,"MEAN_MOTION_DOT":0.00114995,"MEAN_MOTION_DDOT":0},{"OBJECT_NAME":"STARLINK-11473 [DTC]","OBJECT_ID":"2024-217D","EPOCH":"2026-03-20T06:44:22.412544","MEAN_MOTION":15.69769452,"ECCENTRICITY":0.00013018,"INCLINATION":53.158,"RA_OF_ASC_NODE":19.2904,"ARG_OF_PERICENTER":102.6486,"MEAN_ANOMALY":257.4677,"EPHEMERIS_TYPE":0,"CLASSIFICATION_TYPE":"U","NORAD_CAT_ID":62060,"ELEMENT_SET_NO":999,"REV_AT_EPOCH":7683,"BSTAR":0.0014585144,"MEAN_MOTION_DOT":0.00180447,"MEAN_MOTION_DDOT":0},{"OBJECT_NAME":"STARLINK-11429 [DTC]","OBJECT_ID":"2024-217E","EPOCH":"2026-03-20T01:48:07.642080","MEAN_MOTION":15.69752292,"ECCENTRICITY":0.00010136,"INCLINATION":53.1579,"RA_OF_ASC_NODE":20.1347,"ARG_OF_PERICENTER":119.1288,"MEAN_ANOMALY":240.9831,"EPHEMERIS_TYPE":0,"CLASSIFICATION_TYPE":"U","NORAD_CAT_ID":62061,"ELEMENT_SET_NO":999,"REV_AT_EPOCH":7680,"BSTAR":0.00096632761,"MEAN_MOTION_DOT":0.00118371,"MEAN_MOTION_DDOT":0},{"OBJECT_NAME":"STARLINK-11470 [DTC]","OBJECT_ID":"2024-217F","EPOCH":"2026-03-20T06:16:07.366368","MEAN_MOTION":15.69743768,"ECCENTRICITY":0.00021705,"INCLINATION":53.1578,"RA_OF_ASC_NODE":19.1588,"ARG_OF_PERICENTER":25.8792,"MEAN_ANOMALY":334.2334,"EPHEMERIS_TYPE":0,"CLASSIFICATION_TYPE":"U","NORAD_CAT_ID":62062,"ELEMENT_SET_NO":999,"REV_AT_EPOCH":7677,"BSTAR":0.001179162,"MEAN_MOTION_DOT":0.00144996,"MEAN_MOTION_DDOT":0},{"OBJECT_NAME":"STARLINK-11427 [DTC]","OBJECT_ID":"2024-217G","EPOCH":"2026-03-20T05:05:37.757184","MEAN_MOTION":15.69728435,"ECCENTRICITY":0.00013796,"INCLINATION":53.1584,"RA_OF_ASC_NODE":19.5697,"ARG_OF_PERICENTER":78.8455,"MEAN_ANOMALY":281.2718,"EPHEMERIS_TYPE":0,"CLASSIFICATION_TYPE":"U","NORAD_CAT_ID":62063,"ELEMENT_SET_NO":999,"REV_AT_EPOCH":7682,"BSTAR":0.001176444,"MEAN_MOTION_DOT":0.00144555,"MEAN_MOTION_DDOT":0},{"OBJECT_NAME":"STARLINK-11456 [DTC]","OBJECT_ID":"2024-217H","EPOCH":"2026-03-20T05:54:55.668096","MEAN_MOTION":15.69756729,"ECCENTRICITY":0.00010489,"INCLINATION":53.1578,"RA_OF_ASC_NODE":19.0645,"ARG_OF_PERICENTER":73.4879,"MEAN_ANOMALY":286.6254,"EPHEMERIS_TYPE":0,"CLASSIFICATION_TYPE":"U","NORAD_CAT_ID":62064,"ELEMENT_SET_NO":999,"REV_AT_EPOCH":7683,"BSTAR":0.0011286668,"MEAN_MOTION_DOT":0.00138725,"MEAN_MOTION_DDOT":0}]
