STARLINK-32599          
1 62048U 24216S   26078.70911584  .00024632  00000+0  90251-3 0  9999
2 62048  42.9998 207.0281 0001575 285.6529  74.4149 15.27547994 75327
STARLINK-32473          
1 62049U 24216T   26078.68567021  .00023785  00000+0  87040-3 0  9990
2 62049  43.0007 199.9304 0001495 272.5260  87.5420 15.27604994 74245
STARLINK-32492          
1 62050U 24216U   26078.81418579  .00026217  00000+0  95792-3 0  9996
2 62050  43.0009 206.0984 0002341 254.5243 105.5350 15.27610759 75346
STARLINK-32496          
1 62051U 24216V   26078.71939463  .00014811  00000+0  54637-3 0  9996
2 62051  42.9984 207.1060 0001502 275.7477  84.3203 15.27596545 75321
STARLINK-32495          
1 62052U 24216W   26078.79619881  .00016428  00000+0  60487-3 0  9990
2 62052  43.0007 205.9676 0000951 279.4440  80.6304 15.27596056 75347
STARLINK-32494          
1 62053U 24216X   26078.75651424  .00024379  00000+0  89205-3 0  9999
2 62053  43.0008 206.5265 0001620 260.5792  99.4877 15.27597367 75333
STARLINK-32408          
1 62054U 24216Y   26078.68181330  .00024081  00000+0  88129-3 0  9990
2 62054  43.0002 199.9043 0001544 265.3842  94.6833 15.27596609 75417
STARLINK-32571          
1 62055U 24216Z   26079.29456826  .00021972  00000+0  80536-3 0  9994
2 62055  43.0021 195.9022 0001417 273.0091  87.0599 15.27589714 75608
STARLINK-11465 [DTC]    
1 62057U 24217A   26079.11423187  .00199403  00000+0  16123-2 0  9997
2 62057  53.1578  19.6609 0001104  69.7202 290.3935 15.69698264 76813
STARLINK-11426 [DTC]    
1 62058U 24217B   26079.10933036  .00203330  00000+0  16422-2 0  9993
2 62058  53.1578  19.6284 0001041  83.4787 276.6350 15.69711697 76751
STARLINK-11454 [DTC]    
1 62059U 24217C   26079.20733565  .00114995  00000+0  93991-3 0  9995
2 62059  53.1585  19.5404 0001254  76.6681 283.4477 15.69736199 76824
STARLINK-11473 [DTC]    
1 62060U 24217D   26079.28081496  .00180447  00000+0  14585-2 0  9990
2 62060  53.1580  19.2904 0001301 102.6486 257.4677 15.69769452 76831
STARLINK-11429 [DTC]    
1 62061U 24217E   26079.07508845  .00118371  00000+0  96633-3 0  9992
2 62061  53.1579  20.1347 0001013 119.1288 240.9831 15.69752292 76805
STARLINK-11470 [DTC]    
1 62062U 24217F   26079.26119637  .00144996  00000+0  11792-2 0  9995
2 62062  53.1578  19.1588 0002170  25.8792 334.2334 15.69743768 76777
STARLINK-11427 [DTC]    
1 62063U 24217G   26079.21224256  .00144555  00000+0  11764-2 0  9995
2 62063  53.1584  19.5697 0001379  78.8455 281.2718 15.69728435 76821
STARLINK-11456 [DTC]    
1 62064U 24217H   26079.24647764  .00138725  00000+0  11287-2 0  9994
2 62064  53.1578  19.0645 0001048  73.4879 286.6254 15.69756729 76839
